{"type": "FeatureCollection", "features": [ {"type": "Feature", "properties": {"norad_id": 66798, "name": "STARLINK-36041", "group": "last-30-days", "lat": -26.315484872124788, "lon": 89.23469279213336, "alt_km": 330.66604068326524, "timestamp": "2025-12-15T04:01:19.180968+00:00", "meta": {"OBJECT_NAME": "STARLINK-36041", "OBJECT_ID": "2025-278H", "EPOCH": "2025-12-14T06:00:02.999808", "MEAN_MOTION": 15.82985857, "ECCENTRICITY": 0.00019274, "INCLINATION": 42.9971, "RA_OF_ASC_NODE": 242.7983, "ARG_OF_PERICENTER": 275.9987, "MEAN_ANOMALY": 113.3683, "EPHEMERIS_TYPE": 0, "CLASSIFICATION_TYPE": "U", "NORAD_CAT_ID": 66798, "ELEMENT_SET_NO": 999, "REV_AT_EPOCH": 304, "BSTAR": -0.0064744785, "MEAN_MOTION_DOT": -0.01261904, "MEAN_MOTION_DDOT": 0}, "tle": {"line1": "1 66798U 25278H   25348.25003472 -.01261904  00000+0 -64745-2 0  9997", "line2": "2 66798  42.9971 242.7983 0001927 275.9987 113.3683 15.82985857  3041"}}, "geometry": {"type": "Point", "coordinates": [89.23469279213336, -26.315484872124788]}}, {"type": "Feature", "properties": {"norad_id": 66799, "name": "STARLINK-36044", "group": "last-30-days", "lat": -27.605008138523655, "lon": 91.30915019991136, "alt_km": 330.7408108701811, "timestamp": "2025-12-15T04:01:19.180978+00:00", "meta": {"OBJECT_NAME": "STARLINK-36044", "OBJECT_ID": "2025-278J", "EPOCH": "2025-12-14T06:00:02.999808", "MEAN_MOTION": 15.82963927, "ECCENTRICITY": 0.00019672, "INCLINATION": 42.9969, "RA_OF_ASC_NODE": 242.7925, "ARG_OF_PERICENTER": 275.6306, "MEAN_ANOMALY": 116.0746, "EPHEMERIS_TYPE": 0, "CLASSIFICATION_TYPE": "U", "NORAD_CAT_ID": 66799, "ELEMENT_SET_NO": 999, "REV_AT_EPOCH": 320, "BSTAR": -0.0064896767, "MEAN_MOTION_DOT": -0.01263376, "MEAN_MOTION_DDOT": 0}, "tle": {"line1": "1 66799U 25278J   25348.25003472 -.01263376  00000+0 -64897-2 0  9991", "line2": "2 66799  42.9969 242.7925 0001967 275.6306 116.0746 15.82963927  3203"}}, "geometry": {"type": "Point", "coordinates": [91.30915019991136, -27.605008138523655]}}, {"type": "Feature", "properties": {"norad_id": 66800, "name": "STARLINK-35996", "group": "last-30-days", "lat": -30.068925911963547, "lon": 95.57436288886244, "alt_km": 330.9549020818913, "timestamp": "2025-12-15T04:01:19.180988+00:00", "meta": {"OBJECT_NAME": "STARLINK-35996", "OBJECT_ID": "2025-278K", "EPOCH": "2025-12-14T06:00:02.999808", "MEAN_MOTION": 15.82931925, "ECCENTRICITY": 0.0001856, "INCLINATION": 42.997, "RA_OF_ASC_NODE": 242.7804, "ARG_OF_PERICENTER": 273.5207, "MEAN_ANOMALY": 122.8347, "EPHEMERIS_TYPE": 0, "CLASSIFICATION_TYPE": "U", "NORAD_CAT_ID": 66800, "ELEMENT_SET_NO": 999, "REV_AT_EPOCH": 299, "BSTAR": -0.006594931, "MEAN_MOTION_DOT": -0.01279634, "MEAN_MOTION_DDOT": 0}, "tle": {"line1": "1 66800U 25278K   25348.25003472 -.01279634  00000+0 -65949-2 0  9997", "line2": "2 66800  42.9970 242.7804 0001856 273.5207 122.8347 15.82931925  2998"}}, "geometry": {"type": "Point", "coordinates": [95.57436288886244, -30.068925911963547]}}, {"type": "Feature", "properties": {"norad_id": 66801, "name": "STARLINK-36080", "group": "last-30-days", "lat": -35.52343769752718, "lon": 107.14420640218421, "alt_km": 331.5986997127975, "timestamp": "2025-12-15T04:01:19.180998+00:00", "meta": {"OBJECT_NAME": "STARLINK-36080", "OBJECT_ID": "2025-278L", "EPOCH": "2025-12-14T06:00:02.999808", "MEAN_MOTION": 15.82850058, "ECCENTRICITY": 0.00019314, "INCLINATION": 42.9971, "RA_OF_ASC_NODE": 242.7506, "ARG_OF_PERICENTER": 280.3023, "MEAN_ANOMALY": 127.6263, "EPHEMERIS_TYPE": 0, "CLASSIFICATION_TYPE": "U", "NORAD_CAT_ID": 66801, "ELEMENT_SET_NO": 999, "REV_AT_EPOCH": 320, "BSTAR": -0.006828343, "MEAN_MOTION_DOT": -0.01314895, "MEAN_MOTION_DDOT": 0}, "tle": {"line1": "1 66801U 25278L   25348.25003472 -.01314895  00000+0 -68283-2 0  9991", "line2": "2 66801  42.9971 242.7506 0001931 280.3023 127.6263 15.82850058  3207"}}, "geometry": {"type": "Point", "coordinates": [107.14420640218421, -35.52343769752718]}}, {"type": "Feature", "properties": {"norad_id": 66802, "name": "STARLINK-35604", "group": "last-30-days", "lat": -28.79389096201138, "lon": 93.31271085293949, "alt_km": 330.9271657960726, "timestamp": "2025-12-15T04:01:19.181008+00:00", "meta": {"OBJECT_NAME": "STARLINK-35604", "OBJECT_ID": "2025-278M", "EPOCH": "2025-12-14T06:00:02.999808", "MEAN_MOTION": 15.82961047, "ECCENTRICITY": 0.00019121, "INCLINATION": 42.997, "RA_OF_ASC_NODE": 242.7868, "ARG_OF_PERICENTER": 278.8346, "MEAN_ANOMALY": 115.0361, "EPHEMERIS_TYPE": 0, "CLASSIFICATION_TYPE": "U", "NORAD_CAT_ID": 66802, "ELEMENT_SET_NO": 999, "REV_AT_EPOCH": 320, "BSTAR": -0.0065247264, "MEAN_MOTION_DOT": -0.01269207, "MEAN_MOTION_DDOT": 0}, "tle": {"line1": "1 66802U 25278M   25348.25003472 -.01269207  00000+0 -65247-2 0  9995", "line2": "2 66802  42.9970 242.7868 0001912 278.8346 115.0361 15.82961047  3208"}}, "geometry": {"type": "Point", "coordinates": [93.31271085293949, -28.79389096201138]}}, {"type": "Feature", "properties": {"norad_id": 66803, "name": "STARLINK-35565", "group": "last-30-days", "lat": -31.190321772875535, "lon": 97.67491902274062, "alt_km": 331.1077165687011, "timestamp": "2025-12-15T04:01:19.181018+00:00", "meta": {"OBJECT_NAME": "STARLINK-35565", "OBJECT_ID": "2025-278N", "EPOCH": "2025-12-14T06:00:02.999808", "MEAN_MOTION": 15.82923737, "ECCENTRICITY": 0.00019046, "INCLINATION": 42.9971, "RA_OF_ASC_NODE": 242.7751, "ARG_OF_PERICENTER": 277.597, "MEAN_ANOMALY": 120.9283, "EPHEMERIS_TYPE": 0, "CLASSIFICATION_TYPE": "U", "NORAD_CAT_ID": 66803, "ELEMENT_SET_NO": 999, "REV_AT_EPOCH": 328, "BSTAR": -0.0066106286, "MEAN_MOTION_DOT": -0.01281907, "MEAN_MOTION_DDOT": 0}, "tle": {"line1": "1 66803U 25278N   25348.25003472 -.01281907  00000+0 -66106-2 0  9992", "line2": "2 66803  42.9971 242.7751 0001904 277.5970 120.9283 15.82923737  3281"}}, "geometry": {"type": "Point", "coordinates": [97.67491902274062, -31.190321772875535]}}, {"type": "Feature", "properties": {"norad_id": 66804, "name": "STARLINK-36038", "group": "last-30-days", "lat": -32.41570445591262, "lon": 100.10936500302243, "alt_km": 331.18821089058565, "timestamp": "2025-12-15T04:01:19.181030+00:00", "meta": {"OBJECT_NAME": "STARLINK-36038", "OBJECT_ID": "2025-278P", "EPOCH": "2025-12-14T06:00:02.999808", "MEAN_MOTION": 15.82890614, "ECCENTRICITY": 0.00019032, "INCLINATION": 42.9973, "RA_OF_ASC_NODE": 242.7688, "ARG_OF_PERICENTER": 275.3077, "MEAN_ANOMALY": 125.7612, "EPHEMERIS_TYPE": 0, "CLASSIFICATION_TYPE": "U", "NORAD_CAT_ID": 66804, "ELEMENT_SET_NO": 999, "REV_AT_EPOCH": 320, "BSTAR": -0.0066592598, "MEAN_MOTION_DOT": -0.01288411, "MEAN_MOTION_DDOT": 0}, "tle": {"line1": "1 66804U 25278P   25348.25003472 -.01288411  00000+0 -66593-2 0  9990", "line2": "2 66804  42.9973 242.7688 0001903 275.3077 125.7612 15.82890614  3204"}}, "geometry": {"type": "Point", "coordinates": [100.10936500302243, -32.41570445591262]}}, {"type": "Feature", "properties": {"norad_id": 66805, "name": "STARLINK-36049", "group": "last-30-days", "lat": -34.52446780341826, "lon": 104.72280105188214, "alt_km": 331.5074132672262, "timestamp": "2025-12-15T04:01:19.181064+00:00", "meta": {"OBJECT_NAME": "STARLINK-36049", "OBJECT_ID": "2025-278Q", "EPOCH": "2025-12-14T06:00:02.999808", "MEAN_MOTION": 15.82863574, "ECCENTRICITY": 0.00019289, "INCLINATION": 42.9971, "RA_OF_ASC_NODE": 242.757, "ARG_OF_PERICENTER": 280.5001, "MEAN_ANOMALY": 125.1188, "EPHEMERIS_TYPE": 0, "CLASSIFICATION_TYPE": "U", "NORAD_CAT_ID": 66805, "ELEMENT_SET_NO": 999, "REV_AT_EPOCH": 320, "BSTAR": -0.0067622224, "MEAN_MOTION_DOT": -0.01304448, "MEAN_MOTION_DDOT": 0}, "tle": {"line1": "1 66805U 25278Q   25348.25003472 -.01304448  00000+0 -67622-2 0  9994", "line2": "2 66805  42.9971 242.7570 0001928 280.5001 125.1188 15.82863574  3202"}}, "geometry": {"type": "Point", "coordinates": [104.72280105188214, -34.52446780341826]}}, {"type": "Feature", "properties": {"norad_id": 66806, "name": "STARLINK-36069", "group": "last-30-days", "lat": -33.41634756922279, "lon": 102.2236508984162, "alt_km": 331.40189175327123, "timestamp": "2025-12-15T04:01:19.181088+00:00", "meta": {"OBJECT_NAME": "STARLINK-36069", "OBJECT_ID": "2025-278R", "EPOCH": "2025-12-14T06:00:02.999808", "MEAN_MOTION": 15.82895723, "ECCENTRICITY": 0.00018891, "INCLINATION": 42.9974, "RA_OF_ASC_NODE": 242.7636, "ARG_OF_PERICENTER": 280.4276, "MEAN_ANOMALY": 122.7112, "EPHEMERIS_TYPE": 0, "CLASSIFICATION_TYPE": "U", "NORAD_CAT_ID": 66806, "ELEMENT_SET_NO": 999, "REV_AT_EPOCH": 299, "BSTAR": -0.0067257074, "MEAN_MOTION_DOT": -0.01299982, "MEAN_MOTION_DDOT": 0}, "tle": {"line1": "1 66806U 25278R   25348.25003472 -.01299982  00000+0 -67257-2 0  9995", "line2": "2 66806  42.9974 242.7636 0001889 280.4276 122.7112 15.82895723  2994"}}, "geometry": {"type": "Point", "coordinates": [102.2236508984162, -33.41634756922279]}}, {"type": "Feature", "properties": {"norad_id": 66807, "name": "STARLINK-36000", "group": "last-30-days", "lat": -36.47691129224075, "lon": 109.63823418958222, "alt_km": 331.5886327163398, "timestamp": "2025-12-15T04:01:19.181101+00:00", "meta": {"OBJECT_NAME": "STARLINK-36000", "OBJECT_ID": "2025-278S", "EPOCH": "2025-12-14T06:00:02.999808", "MEAN_MOTION": 15.82831753, "ECCENTRICITY": 0.00018491, "INCLINATION": 42.9972, "RA_OF_ASC_NODE": 242.7456, "ARG_OF_PERICENTER": 275.2527, "MEAN_ANOMALY": 134.9887, "EPHEMERIS_TYPE": 0, "CLASSIFICATION_TYPE": "U", "NORAD_CAT_ID": 66807, "ELEMENT_SET_NO": 999, "REV_AT_EPOCH": 326, "BSTAR": -0.0068632041, "MEAN_MOTION_DOT": -0.01319711, "MEAN_MOTION_DDOT": 0}, "tle": {"line1": "1 66807U 25278S   25348.25003472 -.01319711  00000+0 -68632-2 0  9997", "line2": "2 66807  42.9972 242.7456 0001849 275.2527 134.9887 15.82831753  3268"}}, "geometry": {"type": "Point", "coordinates": [109.63823418958222, -36.47691129224075]}}]}